{
  "links" : {
    "next" : "https://api.nasa.gov/neo/rest/v1/feed?start_date=2011-05-16&end_date=2011-05-16&detailed=true&api_key=t0TVs3DtDT2H8Oy2Zy8m2eVrNsAVKAexjcZXUckd",
    "prev" : "https://api.nasa.gov/neo/rest/v1/feed?start_date=2011-05-14&end_date=2011-05-14&detailed=true&api_key=t0TVs3DtDT2H8Oy2Zy8m2eVrNsAVKAexjcZXUckd",
    "self" : "https://api.nasa.gov/neo/rest/v1/feed?start_date=2011-05-15&end_date=2011-05-15&detailed=true&api_key=t0TVs3DtDT2H8Oy2Zy8m2eVrNsAVKAexjcZXUckd"
  },
  "element_count" : 5,
  "near_earth_objects" : {
    "2011-05-15" : [ {
      "links" : {
        "self" : "https://api.nasa.gov/neo/rest/v1/neo/2275545?api_key=t0TVs3DtDT2H8Oy2Zy8m2eVrNsAVKAexjcZXUckd"
      },
      "neo_reference_id" : "2275545",
      "name" : "275545 (1998 UN1)",
      "nasa_jpl_url" : "http://ssd.jpl.nasa.gov/sbdb.cgi?sstr=2275545",
      "absolute_magnitude_h" : 18.1,
      "estimated_diameter" : {
        "kilometers" : {
          "estimated_diameter_min" : 0.6376097899,
          "estimated_diameter_max" : 1.4257388333
        },
        "meters" : {
          "estimated_diameter_min" : 637.6097898754,
          "estimated_diameter_max" : 1425.7388332807
        },
        "miles" : {
          "estimated_diameter_min" : 0.3961922327,
          "estimated_diameter_max" : 0.8859127646
        },
        "feet" : {
          "estimated_diameter_min" : 2091.8957030147,
          "estimated_diameter_max" : 4677.6209937807
        }
      },
      "is_potentially_hazardous_asteroid" : false,
      "close_approach_data" : [ {
        "close_approach_date" : "2011-05-15",
        "epoch_date_close_approach" : 1305442800000,
        "relative_velocity" : {
          "kilometers_per_second" : "18.171477709",
          "kilometers_per_hour" : "65417.3197522448",
          "miles_per_hour" : "40647.7784871657"
        },
        "miss_distance" : {
          "astronomical" : "0.4489543987",
          "lunar" : "174.6432647705",
          "kilometers" : "67162624",
          "miles" : "41732920"
        },
        "orbiting_body" : "Earth"
      } ],
      "orbital_data" : {
        "orbit_id" : "62",
        "orbit_determination_date" : "2017-04-06 09:24:33",
        "orbit_uncertainty" : "0",
        "minimum_orbit_intersection" : ".378575",
        "jupiter_tisserand_invariant" : "4.326",
        "epoch_osculation" : "2458000.5",
        "eccentricity" : ".2207794580666342",
        "semi_major_axis" : "1.513551635335818",
        "inclination" : "32.42774163994066",
        "ascending_node_longitude" : "217.8821042285543",
        "orbital_period" : "680.1336922870155",
        "perihelion_distance" : "1.179390525530508",
        "perihelion_argument" : "87.70146231507299",
        "aphelion_distance" : "1.847712745141128",
        "perihelion_time" : "2457810.382067866749",
        "mean_anomaly" : "100.6308852864294",
        "mean_motion" : ".5293076994751797",
        "equinox" : "J2000"
      }
    }, {
      "links" : {
        "self" : "https://api.nasa.gov/neo/rest/v1/neo/3444372?api_key=t0TVs3DtDT2H8Oy2Zy8m2eVrNsAVKAexjcZXUckd"
      },
      "neo_reference_id" : "3444372",
      "name" : "(2009 BK2)",
      "nasa_jpl_url" : "http://ssd.jpl.nasa.gov/sbdb.cgi?sstr=3444372",
      "absolute_magnitude_h" : 25.3,
      "estimated_diameter" : {
        "kilometers" : {
          "estimated_diameter_min" : 0.0231502122,
          "estimated_diameter_max" : 0.0517654482
        },
        "meters" : {
          "estimated_diameter_min" : 23.150212221,
          "estimated_diameter_max" : 51.7654482198
        },
        "miles" : {
          "estimated_diameter_min" : 0.0143848705,
          "estimated_diameter_max" : 0.0321655483
        },
        "feet" : {
          "estimated_diameter_min" : 75.9521422633,
          "estimated_diameter_max" : 169.8341531374
        }
      },
      "is_potentially_hazardous_asteroid" : false,
      "close_approach_data" : [ {
        "close_approach_date" : "2011-05-15",
        "epoch_date_close_approach" : 1305442800000,
        "relative_velocity" : {
          "kilometers_per_second" : "7.1688333273",
          "kilometers_per_hour" : "25807.799978306",
          "miles_per_hour" : "16035.9632698535"
        },
        "miss_distance" : {
          "astronomical" : "0.2166493482",
          "lunar" : "84.2765960693",
          "kilometers" : "32410282",
          "miles" : "20138816"
        },
        "orbiting_body" : "Earth"
      } ],
      "orbital_data" : {
        "orbit_id" : "9",
        "orbit_determination_date" : "2017-04-06 09:01:37",
        "orbit_uncertainty" : "6",
        "minimum_orbit_intersection" : ".0260372",
        "jupiter_tisserand_invariant" : "5.999",
        "epoch_osculation" : "2458000.5",
        "eccentricity" : ".2125930468909539",
        "semi_major_axis" : "1.012508661951755",
        "inclination" : "3.553442212088394",
        "ascending_node_longitude" : "126.0814471570123",
        "orbital_period" : "372.1315978975369",
        "perihelion_distance" : ".797256360503949",
        "perihelion_argument" : "121.5262754277315",
        "aphelion_distance" : "1.227760963399562",
        "perihelion_time" : "2457939.370406013472",
        "mean_anomaly" : "59.13675151339703",
        "mean_motion" : ".9673997103012003",
        "equinox" : "J2000"
      }
    }, {
      "links" : {
        "self" : "https://api.nasa.gov/neo/rest/v1/neo/3558374?api_key=t0TVs3DtDT2H8Oy2Zy8m2eVrNsAVKAexjcZXUckd"
      },
      "neo_reference_id" : "3558374",
      "name" : "(2011 EC7)",
      "nasa_jpl_url" : "http://ssd.jpl.nasa.gov/sbdb.cgi?sstr=3558374",
      "absolute_magnitude_h" : 21.2,
      "estimated_diameter" : {
        "kilometers" : {
          "estimated_diameter_min" : 0.1529519353,
          "estimated_diameter_max" : 0.3420109247
        },
        "meters" : {
          "estimated_diameter_min" : 152.9519353442,
          "estimated_diameter_max" : 342.0109247198
        },
        "miles" : {
          "estimated_diameter_min" : 0.095039897,
          "estimated_diameter_max" : 0.2125156703
        },
        "feet" : {
          "estimated_diameter_min" : 501.8108275547,
          "estimated_diameter_max" : 1122.0831222578
        }
      },
      "is_potentially_hazardous_asteroid" : false,
      "close_approach_data" : [ {
        "close_approach_date" : "2011-05-15",
        "epoch_date_close_approach" : 1305442800000,
        "relative_velocity" : {
          "kilometers_per_second" : "17.8774618506",
          "kilometers_per_hour" : "64358.862662309",
          "miles_per_hour" : "39990.0944136997"
        },
        "miss_distance" : {
          "astronomical" : "0.3702194756",
          "lunar" : "144.0153808594",
          "kilometers" : "55384044",
          "miles" : "34414048"
        },
        "orbiting_body" : "Earth"
      } ],
      "orbital_data" : {
        "orbit_id" : "11",
        "orbit_determination_date" : "2017-04-06 08:54:17",
        "orbit_uncertainty" : "5",
        "minimum_orbit_intersection" : ".0529424",
        "jupiter_tisserand_invariant" : "3.144",
        "epoch_osculation" : "2458000.5",
        "eccentricity" : ".7501482125763769",
        "semi_major_axis" : "2.290604454557168",
        "inclination" : "6.25640178643401",
        "ascending_node_longitude" : "155.2432478500522",
        "orbital_period" : "1266.262012356628",
        "perihelion_distance" : ".5723116172516218",
        "perihelion_argument" : "119.3128407188663",
        "aphelion_distance" : "4.008897291862715",
        "perihelion_time" : "2458258.322451778921",
        "mean_anomaly" : "286.7007288107203",
        "mean_motion" : ".2843013503421836",
        "equinox" : "J2000"
      }
    } ]
  }
}